{
    "links": {
        "self": "http://www.neowsapp.com/rest/v1/neo/3304561?api_key=iIulBulltgU6a56xZRHN4H3l9WmuAYTsLGpBGhQ2"
    },
    "id": "3304561",
    "neo_reference_id": "3304561",
    "name": "(2005 WN3)",
    "designation": "2005 WN3",
    "nasa_jpl_url": "http://ssd.jpl.nasa.gov/sbdb.cgi?sstr=3304561",
    "absolute_magnitude_h": 29.9,
    "estimated_diameter": {
        "kilometers": {
            "estimated_diameter_min": 0.0027832677,
            "estimated_diameter_max": 0.0062235757
        },
        "meters": {
            "estimated_diameter_min": 2.7832676807,
            "estimated_diameter_max": 6.2235757337
        },
        "miles": {
            "estimated_diameter_min": 0.0017294418,
            "estimated_diameter_max": 0.0038671495
        },
        "feet": {
            "estimated_diameter_min": 9.1314559376,
            "estimated_diameter_max": 20.41855621
        }
    },
    "is_potentially_hazardous_asteroid": false,
    "close_approach_data": [
        {
            "close_approach_date": "2005-10-17",
            "close_approach_date_full": "2005-Oct-17 19:49",
            "epoch_date_close_approach": 1129578540000,
            "relative_velocity": {
                "kilometers_per_second": "21.8588668861",
                "kilometers_per_hour": "78691.9207898012",
                "miles_per_hour": "48896.0993374184"
            },
            "miss_distance": {
                "astronomical": "0.0315184334",
                "lunar": "12.2606705926",
                "kilometers": "4715090.502376858",
                "miles": "2929821.3805543204"
            },
            "orbiting_body": "Mars"
        },
        {
            "close_approach_date": "2005-11-26",
            "close_approach_date_full": "2005-Nov-26 00:32",
            "epoch_date_close_approach": 1132965120000,
            "relative_velocity": {
                "kilometers_per_second": "19.3014053604",
                "kilometers_per_hour": "69485.0592974342",
                "miles_per_hour": "43175.3136506752"
            },
            "miss_distance": {
                "astronomical": "0.0005603231",
                "lunar": "0.2179656859",
                "kilometers": "83823.142271797",
                "miles": "52085.2853809186"
            },
            "orbiting_body": "Earth"
        },
        {
            "close_approach_date": "2005-11-26",
            "close_approach_date_full": "2005-Nov-26 03:57",
            "epoch_date_close_approach": 1132977420000,
            "relative_velocity": {
                "kilometers_per_second": "18.3551932671",
                "kilometers_per_hour": "66078.6957614322",
                "miles_per_hour": "41058.7318190966"
            },
            "miss_distance": {
                "astronomical": "0.0027752152",
                "lunar": "1.0795587128",
                "kilometers": "415166.282711624",
                "miles": "257972.3657394512"
            },
            "orbiting_body": "Moon"
        }
    ],
    "orbital_data": {
        "orbit_id": "6",
        "orbit_determination_date": "2017-04-06 09:09:48",
        "first_observation_date": "2005-11-25",
        "last_observation_date": "2005-11-25",
        "data_arc_in_days": null,
        "observations_used": 15,
        "orbit_uncertainty": "8",
        "minimum_orbit_intersection": ".000129424",
        "jupiter_tisserand_invariant": "3.043",
        "epoch_osculation": "2453699.5",
        "eccentricity": ".7257956437117841",
        "semi_major_axis": "2.487297800770674",
        "inclination": ".4844421212583611",
        "ascending_node_longitude": "242.7555255700874",
        "orbital_period": "1432.814954542166",
        "perihelion_distance": ".6820278923574178",
        "perihelion_argument": "255.5864582860582",
        "aphelion_distance": "4.292567709183929",
        "perihelion_time": "2453742.951304037520",
        "mean_anomaly": "349.0827008722103",
        "mean_motion": ".2512536590009507",
        "equinox": "J2000",
        "orbit_class": {
            "orbit_class_type": "APO",
            "orbit_class_description": "Near-Earth asteroid orbits which cross the Earth’s orbit similar to that of 1862 Apollo",
            "orbit_class_range": "a (semi-major axis) > 1.0 AU; q (perihelion) < 1.017 AU"
        }
    },
    "is_sentry_object": false
}